IRIDIUM 57              
1 25273U 98019B   24282.43198592  .00005727  00000+0  19859-2 0  9999
2 25273  86.3929 250.6537 0002397  90.0953 270.0518 14.35476318388872
IRIDIUM 63              
1 25286U 98021B   24282.48043773  .00003534  00000+0  12086-2 0  9990
2 25286  86.4056 187.6059 0002362  78.8909 281.2553 14.36077745387989
IRIDIUM 69              
1 25319U 98026A   24282.49249772  .00005897  00000+0  18525-2 0  9998
2 25319  86.4042 201.6260 0004321 107.9640 252.2030 14.40371233387066
IRIDIUM 71              
1 25320U 98026B   24282.46846646  .00003803  00000+0  11862-2 0  9992
2 25320  86.4046 196.3809 0002493 136.1097 224.0301 14.40651503387596
IRIDIUM 73              
1 25344U 98032C   24282.55743404  .00004243  00000+0  10687-2 0  9996
2 25344  86.4451 153.6358 0002775  92.6731 267.4792 14.50978717394369
IRIDIUM 82              
1 25467U 98051A   24281.85997953  .00040992  00000+0  17983-2 0  9992
2 25467  86.3750 232.0827 0117044 162.4633 198.0705 15.15722473385521
